COMMENT,ORIGINATOR,NORAD_CAT_ID,OBJECT_NAME,OBJECT_TYPE,CLASSIFICATION_TYPE,INTLDES,EPOCH,EPOCH_MICROSECONDS,MEAN_MOTION,ECCENTRICITY,INCLINATION,RA_OF_ASC_NODE,ARG_OF_PERICENTER,MEAN_ANOMALY,EPHEMERIS_TYPE,ELEMENT_SET_NO,REV_AT_EPOCH,BSTAR,MEAN_MOTION_DOT,MEAN_MOTION_DDOT,FILE,TLE_LINE0,TLE_LINE1,TLE_LINE2,OBJECT_ID,OBJECT_NUMBER,SEMIMAJOR_AXIS,PERIOD,APOGEE,PERIGEE,DECAYED
"GENERATED VIA SPACETRACK.ORG API","18 SPCS","48895","SPACEBEE-108","PAYLOAD","U","21059S","2023-04-05 08:52:41","236608","15.26677733","0.0008216","97.5859","230.9132","172.8829","187.2528","0","999","9826","0.0014411","0.00037933","0","3880853","0 SPACEBEE-108","1 48895U 21059S   23095.36992172  .00037933  00000-0  14411-2 0  9997","2 48895  97.5859 230.9132 0008216 172.8829 187.2528 15.26677733 98268","2021-059S","48895","6863.889","94.322","491.394","480.115","0"
"GENERATED VIA SPACETRACK.ORG API","18 SPCS","48895","SPACEBEE-108","PAYLOAD","U","21059S","2023-04-05 19:53:21","633504","15.26711927","0.0008223","97.5861","231.3792","171.139","188.9995","0","999","9833","0.0013824","0.00036415","0","3881153","0 SPACEBEE-108","1 48895U 21059S   23095.82872261  .00036415  00000-0  13824-2 0  9995","2 48895  97.5861 231.3792 0008223 171.1390 188.9995 15.26711927 98339","2021-059S","48895","6863.787","94.320","491.296","480.008","0"
"GENERATED VIA SPACETRACK.ORG API","18 SPCS","48895","SPACEBEE-108","PAYLOAD","U","21059S","2023-04-06 08:28:23","926944","15.26747931","0.0008208","97.586","231.9117","169.3027","190.8387","0","999","9841","0.0013374","0.0003526","0","3881571","0 SPACEBEE-108","1 48895U 21059S   23096.35305471  .00035260  00000-0  13374-2 0  9995","2 48895  97.5860 231.9117 0008208 169.3027 190.8387 15.26747931 98414","2021-059S","48895","6863.679","94.318","491.177","479.910","0"
"GENERATED VIA SPACETRACK.ORG API","18 SPCS","48895","SPACEBEE-108","PAYLOAD","U","21059S","2023-04-06 08:28:23","926944","15.26747931","0.0008208","97.586","231.9117","169.3027","190.8387","0","999","9841","0.0013374","0.0003526","0","3881771","0 SPACEBEE-108","1 48895U 21059S   23096.35305471  .00035260  00000-0  13374-2 0  9995","2 48895  97.5860 231.9117 0008208 169.3027 190.8387 15.26747931 98414","2021-059S","48895","6863.679","94.318","491.177","479.910","0"
"GENERATED VIA SPACETRACK.ORG API","18 SPCS","48895","SPACEBEE-108","PAYLOAD","U","21059S","2023-04-06 19:29:02","475744","15.26780888","0.0008215","97.5862","232.3777","168.0229","192.1206","0","999","9848","0.001288","0.00033983","0","3882049","0 SPACEBEE-108","1 48895U 21059S   23096.81183421  .00033983  00000-0  12880-2 0  9996","2 48895  97.5862 232.3777 0008215 168.0229 192.1206 15.26780888 98481","2021-059S","48895","6863.580","94.316","491.083","479.807","0"
"GENERATED VIA SPACETRACK.ORG API","18 SPCS","48895","SPACEBEE-108","PAYLOAD","U","21059S","2023-04-07 14:21:32","320800","15.26838994","0.0008211","97.5865","233.1766","165.7758","194.3713","0","999","9860","0.0014401","0.00038092","0","3882626","0 SPACEBEE-108","1 48895U 21059S   23097.59829075  .00038092  00000-0  14401-2 0  9991","2 48895  97.5865 233.1766 0008211 165.7758 194.3713 15.26838994 98601","2021-059S","48895","6863.406","94.312","490.906","479.635","0"
"GENERATED VIA SPACETRACK.ORG API","18 SPCS","48895","SPACEBEE-108","PAYLOAD","U","21059S","2023-04-07 14:21:32","320800","15.26838994","0.0008211","97.5865","233.1766","165.7758","194.3713","0","999","9860","0.0014401","0.00038092","0","3882684","0 SPACEBEE-108","1 48895U 21059S   23097.59829075  .00038092  00000-0  14401-2 0  9991","2 48895  97.5865 233.1766 0008211 165.7758 194.3713 15.26838994 98601","2021-059S","48895","6863.406","94.312","490.906","479.635","0"
"GENERATED VIA SPACETRACK.ORG API","18 SPCS","48895","SPACEBEE-108","PAYLOAD","U","21059S","2023-04-08 07:39:37","473408","15.26887421","0.0008232","97.5869","233.9094","163.4903","196.6605","0","999","9871","0.0012549","0.00033211","0","3883527","0 SPACEBEE-108","1 48895U 21059S   23098.31918372  .00033211  00000-0  12549-2 0  9990","2 48895  97.5869 233.9094 0008232 163.4903 196.6605 15.26887421 98713","2021-059S","48895","6863.261","94.310","490.776","479.476","0"
"GENERATED VIA SPACETRACK.ORG API","18 SPCS","48895","SPACEBEE-108","PAYLOAD","U","21059S","2023-04-08 20:14:34","469664","15.26925343","0.0008245","97.5872","234.4421","161.4566","198.6974","0","999","9879","0.001266","0.00033545","0","3883594","0 SPACEBEE-108","1 48895U 21059S   23098.84345451  .00033545  00000-0  12660-2 0  9994","2 48895  97.5872 234.4421 0008245 161.4566 198.6974 15.26925343 98799","2021-059S","48895","6863.147","94.307","490.671","479.353","0"
"GENERATED VIA SPACETRACK.ORG API","18 SPCS","48895","SPACEBEE-108","PAYLOAD","U","21059S","2023-04-09 08:49:30","444672","15.26960496","0.0008285","97.5873","234.9748","159.4601","200.6972","0","999","9887","0.0012774","0.00033886","0","3884332","0 SPACEBEE-108","1 48895U 21059S   23099.36771348  .00033886  00000-0  12774-2 0  9994","2 48895  97.5873 234.9748 0008285 159.4601 200.6972 15.26960496 98877","2021-059S","48895","6863.042","94.305","490.593","479.221","0"
"GENERATED VIA SPACETRACK.ORG API","18 SPCS","48895","SPACEBEE-108","PAYLOAD","U","21059S","2023-04-10 02:07:30","690624","15.2700683","0.0008294","97.5873","235.7074","157.3524","202.8082","0","999","9898","0.0012241","0.00032508","0","3884718","0 SPACEBEE-108","1 48895U 21059S   23100.08854966  .00032508  00000-0  12241-2 0  9993","2 48895  97.5873 235.7074 0008294 157.3524 202.8082 15.27006830 98981","2021-059S","48895","6862.903","94.302","490.460","479.076","0"
"GENERATED VIA SPACETRACK.ORG API","18 SPCS","48895","SPACEBEE-108","PAYLOAD","U","21059S","2023-04-10 08:24:57","559680","15.27027643","0.0008294","97.5873","235.9738","156.3597","203.8024","0","999","9902","0.0013418","0.00035679","0","3885195","0 SPACEBEE-108","1 48895U 21059S   23100.35066620  .00035679  00000-0  13418-2 0  9994","2 48895  97.5873 235.9738 0008294 156.3597 203.8024 15.27027643 99027","2021-059S","48895","6862.841","94.301","490.398","479.014","0"
"GENERATED VIA SPACETRACK.ORG API","18 SPCS","48895","SPACEBEE-108","PAYLOAD","U","21059S","2023-04-10 22:34:11","892288","15.27072876","0.0008252","97.5872","236.5733","154.6735","205.491","0","999","9911","0.0013886","0.00036983","0","3885408","0 SPACEBEE-108","1 48895U 21059S   23100.94041542  .00036983  00000-0  13886-2 0  9993","2 48895  97.5872 236.5733 0008252 154.6735 205.4910 15.27072876 99117","2021-059S","48895","6862.705","94.298","490.233","478.907","0"
"GENERATED VIA SPACETRACK.ORG API","18 SPCS","48895","SPACEBEE-108","PAYLOAD","U","21059S","2023-04-11 08:00:20","688192","15.27097304","0.0008243","97.5871","236.973","153.555","206.6111","0","999","9917","0.0012082","0.00032171","0","3885783","0 SPACEBEE-108","1 48895U 21059S   23101.33357278  .00032171  00000-0  12082-2 0  9995","2 48895  97.5871 236.9730 0008243 153.5550 206.6111 15.27097304 99175","2021-059S","48895","6862.632","94.297","490.154","478.840","0"
"GENERATED VIA SPACETRACK.ORG API","18 SPCS","48895","SPACEBEE-108","PAYLOAD","U","21059S","2023-04-11 23:43:53","903712","15.27146283","0.0008212","97.587","237.6391","151.0294","209.1402","0","999","9927","0.0012821","0.00034203","0","3885977","0 SPACEBEE-108","1 48895U 21059S   23101.98881833  .00034203  00000-0  12821-2 0  9994","2 48895  97.5870 237.6391 0008212 151.0294 209.1402 15.27146283 99272","2021-059S","48895","6862.485","94.294","489.986","478.715","0"
"GENERATED VIA SPACETRACK.ORG API","18 SPCS","48895","SPACEBEE-108","PAYLOAD","U","21059S","2023-04-12 09:10:00","962976","15.27174507","0.0008219","97.587","238.0388","149.7431","210.4283","0","999","9933","0.0012141","0.00032405","0","3886349","0 SPACEBEE-108","1 48895U 21059S   23102.38195559  .00032405  00000-0  12141-2 0  9999","2 48895  97.5870 238.0388 0008219 149.7431 210.4283 15.27174507 99336","2021-059S","48895","6862.401","94.292","489.906","478.625","0"
"GENERATED VIA SPACETRACK.ORG API","18 SPCS","48895","SPACEBEE-108","PAYLOAD","U","21059S","2023-04-13 08:45:15","910272","15.27247272","0.0008181","97.5873","239.0385","146.6566","213.5189","0","999","9948","0.0013396","0.00035858","0","3886564","0 SPACEBEE-108","1 48895U 21059S   23103.36476748  .00035858  00000-0  13396-2 0  9998","2 48895  97.5873 239.0385 0008181 146.6566 213.5189 15.27247272 99485","2021-059S","48895","6862.183","94.287","489.662","478.434","0"
"GENERATED VIA SPACETRACK.ORG API","18 SPCS","48895","SPACEBEE-108","PAYLOAD","U","21059S","2023-04-14 09:54:47","312640","15.27329472","0.0008108","97.5868","240.1045","143.1515","217.0282","0","999","9964","0.0014666","0.0003938","0","3887333","0 SPACEBEE-108","1 48895U 21059S   23104.41304760  .00039380  00000-0  14666-2 0  9994","2 48895  97.5868 240.1045 0008108 143.1515 217.0282 15.27329472 99644","2021-059S","48895","6861.936","94.282","489.365","478.238","0"
"GENERATED VIA SPACETRACK.ORG API","18 SPCS","48895","SPACEBEE-108","PAYLOAD","U","21059S","2023-04-15 07:55:33","26304","15.27410556","0.000799","97.5865","241.0374","140.2744","219.9081","0","999","9978","0.0016187","0.00043602","0","3887974","0 SPACEBEE-108","1 48895U 21059S   23105.33024336  .00043602  00000-0  16187-2 0  9996","2 48895  97.5865 241.0374 0007990 140.2744 219.9081 15.27410556 99783","2021-059S","48895","6861.694","94.277","489.041","478.076","0"
"GENERATED VIA SPACETRACK.ORG API","18 SPCS","48895","SPACEBEE-108","PAYLOAD","U","21059S","2023-04-15 20:30:14","288256","15.27462794","0.0007974","97.5866","241.5704","138.4563","221.7282","0","999","9986","0.0017417","0.00047017","0","3888171","0 SPACEBEE-108","1 48895U 21059S   23105.85433204  .00047017  00000-0  17417-2 0  9992","2 48895  97.5866 241.5704 0007974 138.4563 221.7282 15.27462794 99860","2021-059S","48895","6861.537","94.274","488.873","477.931","0"
